OBJECT C                
1 57582U 23117C   24242.21177757  .00015412  00000+0  76579-3 0  9991
2 57582  97.4817 313.3297 0011066  46.8769 313.3388 15.17697147 58254
